SAVED_AT,EPOCH,OBJECT_NAME,OBJECT_ID,MEAN_MOTION,ECCENTRICITY,INCLINATION,RA_OF_ASC_NODE,ARG_OF_PERICENTER,MEAN_ANOMALY,EPHEMERIS_TYPE,CLASSIFICATION_TYPE,NORAD_CAT_ID,ELEMENT_SET_NO,REV_AT_EPOCH,BSTAR,MEAN_MOTION_DOT,MEAN_MOTION_DDOT
2026-07-04T17:00:11.724870,2026-07-03T23:17:18.238272,SWIFT,2004-047A,15.70001988,8.442e-05,20.5532,55.2849,198.0974,161.9442,0.0,U,28485.0,999.0,18950.0,0.00054591173,0.00070231,0.0
2026-07-05T01:52:37.972393,2026-07-04T06:54:45.877536,SWIFT,2004-047A,15.70048873,7.991e-05,20.5529,52.8275,197.6102,162.4317,0.0,U,28485.0,999.0,18955.0,0.0005857037,0.00075476,0.0
2026-07-05T10:57:11.166271,2026-07-04T22:09:38.030976,SWIFT,2004-047A,15.70170079,8.568e-05,20.5532,47.9146,222.0058,138.0322,0.0,U,28485.0,999.0,18965.0,0.00067942827,0.00087977,0.0
